{
    "links": {
        "self": "http://www.neowsapp.com/rest/v1/neo/3335304?api_key=iIulBulltgU6a56xZRHN4H3l9WmuAYTsLGpBGhQ2"
    },
    "id": "3335304",
    "neo_reference_id": "3335304",
    "name": "(2006 LA)",
    "designation": "2006 LA",
    "nasa_jpl_url": "http://ssd.jpl.nasa.gov/sbdb.cgi?sstr=3335304",
    "absolute_magnitude_h": 18.8,
    "estimated_diameter": {
        "kilometers": {
            "estimated_diameter_min": 0.4619074603,
            "estimated_diameter_max": 1.0328564805
        },
        "meters": {
            "estimated_diameter_min": 461.9074602816,
            "estimated_diameter_max": 1032.8564805039
        },
        "miles": {
            "estimated_diameter_min": 0.2870159005,
            "estimated_diameter_max": 0.6417870641
        },
        "feet": {
            "estimated_diameter_min": 1515.4444719902,
            "estimated_diameter_max": 3388.6368554964
        }
    },
    "is_potentially_hazardous_asteroid": false,
    "close_approach_data": [
        {
            "close_approach_date": "2006-05-18",
            "close_approach_date_full": "2006-May-18 08:27",
            "epoch_date_close_approach": 1147940820000,
            "relative_velocity": {
                "kilometers_per_second": "38.377465237",
                "kilometers_per_hour": "138158.874853029",
                "miles_per_hour": "85846.551988539"
            },
            "miss_distance": {
                "astronomical": "0.2942537331",
                "lunar": "114.4647021759",
                "kilometers": "44019731.711308497",
                "miles": "27352592.9288193786"
            },
            "orbiting_body": "Earth"
        }
    ],
    "orbital_data": {
        "orbit_id": "6",
        "orbit_determination_date": "2017-04-06 09:08:30",
        "first_observation_date": "2006-06-01",
        "last_observation_date": "2006-06-02",
        "data_arc_in_days": 1,
        "observations_used": 14,
        "orbit_uncertainty": "9",
        "minimum_orbit_intersection": ".0585318",
        "jupiter_tisserand_invariant": "3.927",
        "epoch_osculation": "2453888.5",
        "eccentricity": ".838559332538774",
        "semi_major_axis": "1.556698619921316",
        "inclination": "11.05748755945452",
        "ascending_node_longitude": "27.27747856379833",
        "orbital_period": "709.422955830559",
        "perihelion_distance": ".2513144642360665",
        "perihelion_argument": "67.57639753183267",
        "aphelion_distance": "2.862082775606564",
        "perihelion_time": "2453836.986336854668",
        "mean_anomaly": "26.14084951706701",
        "mean_motion": ".5074546813593436",
        "equinox": "J2000",
        "orbit_class": {
            "orbit_class_type": "APO",
            "orbit_class_description": "Near-Earth asteroid orbits which cross the Earth’s orbit similar to that of 1862 Apollo",
            "orbit_class_range": "a (semi-major axis) > 1.0 AU; q (perihelion) < 1.017 AU"
        }
    },
    "is_sentry_object": false
}